[{"OBJECT_NAME":"FLOCK 4BE-11","OBJECT_ID":"2024-149AK","EPOCH":"2026-03-29T05:09:27.009216","MEAN_MOTION":15.40157219,"ECCENTRICITY":0.0004388,"INCLINATION":97.3723,"RA_OF_ASC_NODE":171.5923,"ARG_OF_PERICENTER":184.6239,"MEAN_ANOMALY":175.4967,"EPHEMERIS_TYPE":0,"CLASSIFICATION_TYPE":"U","NORAD_CAT_ID":60501,"ELEMENT_SET_NO":999,"REV_AT_EPOCH":9003,"BSTAR":0.00075154,"MEAN_MOTION_DOT":0.00030145,"MEAN_MOTION_DDOT":0},{"OBJECT_NAME":"FLOCK 4BE-24","OBJECT_ID":"2024-149AP","EPOCH":"2026-03-29T04:45:47.439072","MEAN_MOTION":15.40008736,"ECCENTRICITY":0.0004375,"INCLINATION":97.3737,"RA_OF_ASC_NODE":171.8208,"ARG_OF_PERICENTER":194.6722,"MEAN_ANOMALY":165.4397,"EPHEMERIS_TYPE":0,"CLASSIFICATION_TYPE":"U","NORAD_CAT_ID":60505,"ELEMENT_SET_NO":999,"REV_AT_EPOCH":9004,"BSTAR":0.00076757,"MEAN_MOTION_DOT":0.00030641,"MEAN_MOTION_DDOT":0},{"OBJECT_NAME":"TANAGER-1","OBJECT_ID":"2024-149AR","EPOCH":"2026-03-29T04:57:26.663904","MEAN_MOTION":15.43577774,"ECCENTRICITY":0.0007261,"INCLINATION":97.3754,"RA_OF_ASC_NODE":181.8519,"ARG_OF_PERICENTER":216.3002,"MEAN_ANOMALY":143.7754,"EPHEMERIS_TYPE":0,"CLASSIFICATION_TYPE":"U","NORAD_CAT_ID":60507,"ELEMENT_SET_NO":999,"REV_AT_EPOCH":9069,"BSTAR":0.00065149,"MEAN_MOTION_DOT":0.00029284,"MEAN_MOTION_DDOT":0},{"OBJECT_NAME":"FLOCK 4BE-29","OBJECT_ID":"2024-149AT","EPOCH":"2026-03-29T05:00:11.888352","MEAN_MOTION":15.41326456,"ECCENTRICITY":0.000278,"INCLINATION":97.3823,"RA_OF_ASC_NODE":173.0403,"ARG_OF_PERICENTER":197.3097,"MEAN_ANOMALY":162.8056,"EPHEMERIS_TYPE":0,"CLASSIFICATION_TYPE":"U","NORAD_CAT_ID":60509,"ELEMENT_SET_NO":999,"REV_AT_EPOCH":9008,"BSTAR":0.00071516,"MEAN_MOTION_DOT":0.00029803,"MEAN_MOTION_DDOT":0},{"OBJECT_NAME":"FLOCK 4BE-2","OBJECT_ID":"2024-149AV","EPOCH":"2026-03-29T04:48:30.360960","MEAN_MOTION":15.45053371,"ECCENTRICITY":0.0004125,"INCLINATION":97.3828,"RA_OF_ASC_NODE":173.7081,"ARG_OF_PERICENTER":196.6914,"MEAN_ANOMALY":163.42,"EPHEMERIS_TYPE":0,"CLASSIFICATION_TYPE":"U","NORAD_CAT_ID":60511,"ELEMENT_SET_NO":999,"REV_AT_EPOCH":9012,"BSTAR":0.0013676,"MEAN_MOTION_DOT":0.00064973,"MEAN_MOTION_DDOT":0},{"OBJECT_NAME":"FLOCK 4BE-13","OBJECT_ID":"2024-149AW","EPOCH":"2026-03-29T05:01:43.598496","MEAN_MOTION":15.39574306,"ECCENTRICITY":0.0004448,"INCLINATION":97.3738,"RA_OF_ASC_NODE":171.9221,"ARG_OF_PERICENTER":182.9061,"MEAN_ANOMALY":177.216,"EPHEMERIS_TYPE":0,"CLASSIFICATION_TYPE":"U","NORAD_CAT_ID":60512,"ELEMENT_SET_NO":999,"REV_AT_EPOCH":9005,"BSTAR":0.00059122,"MEAN_MOTION_DOT":0.00023226,"MEAN_MOTION_DDOT":0},{"OBJECT_NAME":"FLOCK 4BE-27","OBJECT_ID":"2024-149AX","EPOCH":"2026-03-29T04:58:49.333152","MEAN_MOTION":15.33007953,"ECCENTRICITY":0.0003423,"INCLINATION":97.3848,"RA_OF_ASC_NODE":170.1018,"ARG_OF_PERICENTER":207.9298,"MEAN_ANOMALY":152.1761,"EPHEMERIS_TYPE":0,"CLASSIFICATION_TYPE":"U","NORAD_CAT_ID":60513,"ELEMENT_SET_NO":999,"REV_AT_EPOCH":8988,"BSTAR":0.00044331,"MEAN_MOTION_DOT":0.00014069,"MEAN_MOTION_DDOT":0},{"OBJECT_NAME":"FLOCK 4BE-9","OBJECT_ID":"2024-149AY","EPOCH":"2026-03-29T05:03:58.113792","MEAN_MOTION":15.38289025,"ECCENTRICITY":0.0002886,"INCLINATION":97.3811,"RA_OF_ASC_NODE":171.8534,"ARG_OF_PERICENTER":194.8965,"MEAN_ANOMALY":165.2195,"EPHEMERIS_TYPE":0,"CLASSIFICATION_TYPE":"U","NORAD_CAT_ID":60514,"ELEMENT_SET_NO":999,"REV_AT_EPOCH":9001,"BSTAR":0.00062839,"MEAN_MOTION_DOT":0.00023675,"MEAN_MOTION_DDOT":0},{"OBJECT_NAME":"FLOCK 4BE-6","OBJECT_ID":"2024-149BA","EPOCH":"2026-03-29T04:22:20.250048","MEAN_MOTION":15.37279907,"ECCENTRICITY":0.0003564,"INCLINATION":97.381,"RA_OF_ASC_NODE":171.3198,"ARG_OF_PERICENTER":198.555,"MEAN_ANOMALY":161.5565,"EPHEMERIS_TYPE":0,"CLASSIFICATION_TYPE":"U","NORAD_CAT_ID":60516,"ELEMENT_SET_NO":999,"REV_AT_EPOCH":8997,"BSTAR":0.00061897,"MEAN_MOTION_DOT":0.00022567,"MEAN_MOTION_DDOT":0},{"OBJECT_NAME":"FLOCK 4BE-14","OBJECT_ID":"2024-149BB","EPOCH":"2026-03-29T04:00:32.211936","MEAN_MOTION":15.3841765,"ECCENTRICITY":0.0004525,"INCLINATION":97.3724,"RA_OF_ASC_NODE":171.386,"ARG_OF_PERICENTER":203.5366,"MEAN_ANOMALY":156.5673,"EPHEMERIS_TYPE":0,"CLASSIFICATION_TYPE":"U","NORAD_CAT_ID":60517,"ELEMENT_SET_NO":999,"REV_AT_EPOCH":9001,"BSTAR":0.00074573,"MEAN_MOTION_DOT":0.00028251,"MEAN_MOTION_DDOT":0},{"OBJECT_NAME":"FLOCK 4BE-1","OBJECT_ID":"2024-149BC","EPOCH":"2026-03-29T04:42:56.316960","MEAN_MOTION":15.39821899,"ECCENTRICITY":0.0004323,"INCLINATION":97.3797,"RA_OF_ASC_NODE":172.42,"ARG_OF_PERICENTER":203.5208,"MEAN_ANOMALY":156.5841,"EPHEMERIS_TYPE":0,"CLASSIFICATION_TYPE":"U","NORAD_CAT_ID":60518,"ELEMENT_SET_NO":999,"REV_AT_EPOCH":9005,"BSTAR":0.00080553,"MEAN_MOTION_DOT":0.00031969,"MEAN_MOTION_DDOT":0},{"OBJECT_NAME":"FLOCK 4BE-28","OBJECT_ID":"2024-149BD","EPOCH":"2026-03-29T04:43:00.324192","MEAN_MOTION":15.41930859,"ECCENTRICITY":0.0004434,"INCLINATION":97.3768,"RA_OF_ASC_NODE":172.9077,"ARG_OF_PERICENTER":202.4793,"MEAN_ANOMALY":157.6261,"EPHEMERIS_TYPE":0,"CLASSIFICATION_TYPE":"U","NORAD_CAT_ID":60519,"ELEMENT_SET_NO":999,"REV_AT_EPOCH":9010,"BSTAR":0.00076452,"MEAN_MOTION_DOT":0.0003253,"MEAN_MOTION_DDOT":0},{"OBJECT_NAME":"FLOCK 4BE-35","OBJECT_ID":"2024-149CU","EPOCH":"2026-03-29T04:42:01.009728","MEAN_MOTION":15.47668744,"ECCENTRICITY":0.0006135,"INCLINATION":97.3762,"RA_OF_ASC_NODE":171.769,"ARG_OF_PERICENTER":209.5686,"MEAN_ANOMALY":150.5218,"EPHEMERIS_TYPE":0,"CLASSIFICATION_TYPE":"U","NORAD_CAT_ID":60558,"ELEMENT_SET_NO":999,"REV_AT_EPOCH":9001,"BSTAR":0.0029693,"MEAN_MOTION_DOT":0.00156256,"MEAN_MOTION_DDOT":0},{"OBJECT_NAME":"FLOCK 4BE-5","OBJECT_ID":"2024-149CV","EPOCH":"2026-03-29T04:31:10.499808","MEAN_MOTION":15.37759661,"ECCENTRICITY":0.0003373,"INCLINATION":97.3863,"RA_OF_ASC_NODE":171.5615,"ARG_OF_PERICENTER":199.9729,"MEAN_ANOMALY":160.1384,"EPHEMERIS_TYPE":0,"CLASSIFICATION_TYPE":"U","NORAD_CAT_ID":60559,"ELEMENT_SET_NO":999,"REV_AT_EPOCH":8997,"BSTAR":0.00073651,"MEAN_MOTION_DOT":0.00027304,"MEAN_MOTION_DDOT":0},{"OBJECT_NAME":"FLOCK 4BE-12","OBJECT_ID":"2024-149CW","EPOCH":"2026-03-29T04:11:46.277088","MEAN_MOTION":15.51473448,"ECCENTRICITY":0.0007221,"INCLINATION":97.3717,"RA_OF_ASC_NODE":172.5681,"ARG_OF_PERICENTER":212.0874,"MEAN_ANOMALY":147.9939,"EPHEMERIS_TYPE":0,"CLASSIFICATION_TYPE":"U","NORAD_CAT_ID":60560,"ELEMENT_SET_NO":999,"REV_AT_EPOCH":9008,"BSTAR":0.0030914,"MEAN_MOTION_DOT":0.00186641,"MEAN_MOTION_DDOT":0},{"OBJECT_NAME":"FLOCK 4BE-3","OBJECT_ID":"2024-149CX","EPOCH":"2026-03-29T04:13:15.693312","MEAN_MOTION":15.38949335,"ECCENTRICITY":0.0004555,"INCLINATION":97.3718,"RA_OF_ASC_NODE":171.4707,"ARG_OF_PERICENTER":196.2938,"MEAN_ANOMALY":163.8162,"EPHEMERIS_TYPE":0,"CLASSIFICATION_TYPE":"U","NORAD_CAT_ID":60561,"ELEMENT_SET_NO":999,"REV_AT_EPOCH":9002,"BSTAR":0.00071403,"MEAN_MOTION_DOT":0.00027516,"MEAN_MOTION_DDOT":0}]
