FLOCK 4BE-11            
1 60501U 24149AK  26088.21489594  .00030145  00000+0  75154-3 0  9995
2 60501  97.3723 171.5923 0004388 184.6239 175.4967 15.40157219 90035
FLOCK 4BE-24            
1 60505U 24149AP  26088.19846573  .00030641  00000+0  76757-3 0  9991
2 60505  97.3737 171.8208 0004375 194.6722 165.4397 15.40008736 90043
TANAGER-1               
1 60507U 24149AR  26088.20655861  .00029284  00000+0  65149-3 0  9997
2 60507  97.3754 181.8519 0007261 216.3002 143.7754 15.43577774 90693
FLOCK 4BE-29            
1 60509U 24149AT  26088.20847093  .00029803  00000+0  71516-3 0  9991
2 60509  97.3823 173.0403 0002780 197.3097 162.8056 15.41326456 90087
FLOCK 4BE-2             
1 60511U 24149AV  26088.20035140  .00064973  00000+0  13676-2 0  9995
2 60511  97.3828 173.7081 0004125 196.6914 163.4200 15.45053371 90129
FLOCK 4BE-13            
1 60512U 24149AW  26088.20953239  .00023226  00000+0  59122-3 0  9997
2 60512  97.3738 171.9221 0004448 182.9061 177.2160 15.39574306 90054
FLOCK 4BE-27            
1 60513U 24149AX  26088.20751543  .00014069  00000+0  44331-3 0  9993
2 60513  97.3848 170.1018 0003423 207.9298 152.1761 15.33007953 89885
FLOCK 4BE-9             
1 60514U 24149AY  26088.21108928  .00023675  00000+0  62839-3 0  9994
2 60514  97.3811 171.8534 0002886 194.8965 165.2195 15.38289025 90014
FLOCK 4BE-6             
1 60516U 24149BA  26088.18217882  .00022567  00000+0  61897-3 0  9994
2 60516  97.3810 171.3198 0003564 198.5550 161.5565 15.37279907 89971
FLOCK 4BE-14            
1 60517U 24149BB  26088.16703949  .00028251  00000+0  74573-3 0  9998
2 60517  97.3724 171.3860 0004525 203.5366 156.5673 15.38417650 90013
FLOCK 4BE-1             
1 60518U 24149BC  26088.19648515  .00031969  00000+0  80553-3 0  9994
2 60518  97.3797 172.4200 0004323 203.5208 156.5841 15.39821899 90051
FLOCK 4BE-28            
1 60519U 24149BD  26088.19653153  .00032530  00000+0  76452-3 0  9997
2 60519  97.3768 172.9077 0004434 202.4793 157.6261 15.41930859 90101
FLOCK 4BE-35            
1 60558U 24149CU  26088.19584502  .00156256  00000+0  29693-2 0  9997
2 60558  97.3762 171.7690 0006135 209.5686 150.5218 15.47668744 90016
FLOCK 4BE-5             
1 60559U 24149CV  26088.18831597  .00027304  00000+0  73651-3 0  9991
2 60559  97.3863 171.5615 0003373 199.9729 160.1384 15.37759661 89977
FLOCK 4BE-12            
1 60560U 24149CW  26088.17484117  .00186641  00000+0  30914-2 0  9998
2 60560  97.3717 172.5681 0007221 212.0874 147.9939 15.51473448 90080
FLOCK 4BE-3             
1 60561U 24149CX  26088.17587608  .00027516  00000+0  71403-3 0  9992
2 60561  97.3718 171.4707 0004555 196.2938 163.8162 15.38949335 90027
